[
    {
        "Altitude(m)": 710076.3282078934,
        "Argument of Periapsis(deg)": 0.011390121186627068,
        "Eccentricity": 0.0,
        "Inclination(deg)": 45.0,
        "Latitude(deg)": -25.695580906610783,
        "Longitude(deg)": -124.36706752580228,
        "Mean Anomaly(deg)": 322.4423166474809,
        "RAAN(deg)": 4.989248058541796,
        "Satellite Name": "Constellation 1 41",
        "Satellite Number": 41,
        "Semi-Major Axis(m)": 7083131.272910544,
        "Time(s)": 190
    },
    {
        "Altitude(m)": 710062.4985370339,
        "Argument of Periapsis(deg)": 0.011450069192872472,
        "Eccentricity": 0.0,
        "Inclination(deg)": 45.0,
        "Latitude(deg)": -25.657749831017476,
        "Longitude(deg)": -124.31855528001444,
        "Mean Anomaly(deg)": 322.50301778773076,
        "RAAN(deg)": 4.989191469376227,
        "Satellite Name": "Constellation 1 41",
        "Satellite Number": 41,
        "Semi-Major Axis(m)": 7083131.272910544,
        "Time(s)": 191
    },
    {
        "Altitude(m)": 710048.6704721884,
        "Argument of Periapsis(deg)": 0.01151001719911788,
        "Eccentricity": 0.0,
        "Inclination(deg)": 45.0,
        "Latitude(deg)": -25.61989952326704,
        "Longitude(deg)": -124.27007608657856,
        "Mean Anomaly(deg)": 322.5637189279807,
        "RAAN(deg)": 4.989134880210657,
        "Satellite Name": "Constellation 1 41",
        "Satellite Number": 41,
        "Semi-Major Axis(m)": 7083131.272910544,
        "Time(s)": 192
    },
    {
        "Altitude(m)": 710034.8440605534,
        "Argument of Periapsis(deg)": 0.011569965205363285,
        "Eccentricity": 0.0,
        "Inclination(deg)": 45.0,
        "Latitude(deg)": -25.582030027051673,
        "Longitude(deg)": -124.22163005339684,
        "Mean Anomaly(deg)": 322.62442006823056,
        "RAAN(deg)": 4.989078291045088,
        "Satellite Name": "Constellation 1 41",
        "Satellite Number": 41,
        "Semi-Major Axis(m)": 7083131.272910544,
        "Time(s)": 193
    },
    {
        "Altitude(m)": 710021.0193493125,
        "Argument of Periapsis(deg)": 0.01162991321160869,
        "Eccentricity": 0.0,
        "Inclination(deg)": 45.0,
        "Latitude(deg)": -25.54414138600065,
        "Longitude(deg)": -124.17321678408005,
        "Mean Anomaly(deg)": 322.6851212084805,
        "RAAN(deg)": 4.989021701879518,
        "Satellite Name": "Constellation 1 41",
        "Satellite Number": 41,
        "Semi-Major Axis(m)": 7083131.272910544,
        "Time(s)": 194
    },
    {
        "Altitude(m)": 710007.1963856239,
        "Argument of Periapsis(deg)": 0.011689861217854095,
        "Eccentricity": 0.0,
        "Inclination(deg)": 45.0,
        "Latitude(deg)": -25.5062336436793,
        "Longitude(deg)": -124.12483638653082,
        "Mean Anomaly(deg)": 322.74582234873037,
        "RAAN(deg)": 4.988965112713949,
        "Satellite Name": "Constellation 1 41",
        "Satellite Number": 41,
        "Semi-Major Axis(m)": 7083131.272910544,
        "Time(s)": 195
    },
    {
        "Altitude(m)": 709993.3752166356,
        "Argument of Periapsis(deg)": 0.0117498092240995,
        "Eccentricity": 0.0,
        "Inclination(deg)": 45.0,
        "Latitude(deg)": -25.46830684358999,
        "Longitude(deg)": -124.07648880055551,
        "Mean Anomaly(deg)": 322.80652348898025,
        "RAAN(deg)": 4.988908523548379,
        "Satellite Name": "Constellation 1 41",
        "Satellite Number": 41,
        "Semi-Major Axis(m)": 7083131.272910544,
        "Time(s)": 196
    },
    {
        "Altitude(m)": 709979.5558894719,
        "Argument of Periapsis(deg)": 0.011809757230344905,
        "Eccentricity": 0.0,
        "Inclination(deg)": 45.0,
        "Latitude(deg)": -25.430361029171905,
        "Longitude(deg)": -124.02817396596137,
        "Mean Anomaly(deg)": 322.8672246292302,
        "RAAN(deg)": 4.98885193438281,
        "Satellite Name": "Constellation 1 41",
        "Satellite Number": 41,
        "Semi-Major Axis(m)": 7083131.272910544,
        "Time(s)": 197
    },
    {
        "Altitude(m)": 709965.7384512351,
        "Argument of Periapsis(deg)": 0.011869705236590313,
        "Eccentricity": 0.0,
        "Inclination(deg)": 45.0,
        "Latitude(deg)": -25.392396243801063,
        "Longitude(deg)": -123.97989182255706,
        "Mean Anomaly(deg)": 322.9279257694801,
        "RAAN(deg)": 4.98879534521724,
        "Satellite Name": "Constellation 1 41",
        "Satellite Number": 41,
        "Semi-Major Axis(m)": 7083131.272910544,
        "Time(s)": 198
    },
    {
        "Altitude(m)": 709951.9229490083,
        "Argument of Periapsis(deg)": 0.011929653242835719,
        "Eccentricity": 0.0,
        "Inclination(deg)": 45.0,
        "Latitude(deg)": -25.354412530790615,
        "Longitude(deg)": -123.93164231015291,
        "Mean Anomaly(deg)": 322.98862690972993,
        "RAAN(deg)": 4.988738756051671,
        "Satellite Name": "Constellation 1 41",
        "Satellite Number": 41,
        "Semi-Major Axis(m)": 7083131.272910544,
        "Time(s)": 199
    }
]